STARLINK-1104           
1 44922U 20001J   25212.91668981  .00294927  00000+0  12253-2 0  9991
2 44922  53.0516 226.6231 0010623 351.7537 134.1507 15.84360090  6045
STARLINK-1112           
1 44925U 20001M   25212.73160435  .00075171  00000+0  19013-2 0  9994
2 44925  53.0534 242.0669 0009209 314.5060  45.5190 15.39085802306772
STARLINK-1114           
1 44927U 20001P   25212.64074207  .00001479  00000+0  11814-3 0  9999
2 44927  53.0550 258.9472 0000989  73.9362 286.1736 15.06400922306538
STARLINK-1123           
1 44930U 20001S   25213.11991662  .00000205  00000+0  32636-4 0  9991
2 44930  53.0532 256.7952 0001122  79.4397 280.6719 15.06395272306609
STARLINK-1144           
1 44933U 20001V   25213.20042754  .00026419  00000+0  63825-3 0  9991
2 44933  53.0506 219.2470 0003663  83.2987 276.8434 15.41008280308435
STARLINK-1071           
1 44934U 20001W   25212.91668981  .00218610  00000+0  95825-3 0  9996
2 44934  53.0446 202.6721 0011732   0.9189 212.5063 15.83411310  6001
STARLINK-1079           
1 44937U 20001Z   25213.28117190  .00698694  26840-3  76817-3 0  9999
2 44937  53.0234 116.4257 0001889 298.7217 159.4759 16.09121261308587
STARLINK-1091           
1 44940U 20001AC  25213.25002315  .00132963  00000+0  16220-2 0  9991
2 44940  53.0471 212.6339 0009453 356.0507 128.4217 15.59511454307225
STARLINK-1094           
1 44941U 20001AD  25213.06646966  .00000156  00000+0  29356-4 0  9991
2 44941  53.0540 237.0348 0000992  82.1389 277.9712 15.06391954306871
STARLINK-1096           
1 44942U 20001AE  25212.82520821  .00060807  00000+0  53926-3 0  9994
2 44942  52.9976  43.4115 0001908 112.7702 247.3515 15.68012821309552
STARLINK-1122           
1 44949U 20001AM  25213.22128061 -.00001121  00000+0 -56403-4 0  9996
2 44949  53.0539 236.3385 0000974  78.5190 281.5908 15.06386896306898
STARLINK-1066           
1 44954U 20001AS  25213.25002315  .00160185  00000+0  98960-3 0  9995
2 44954  53.0481 184.7955 0013287  15.3182 131.2737 15.76024916307565
STARLINK-1080           
1 44961U 20001AZ  25213.21943433 -.00000491  00000+0 -14056-4 0  9994
2 44961  53.0533 216.3518 0001192  83.6360 276.4764 15.06391199307189
STARLINK-1090           
1 44968U 20001BG  25213.22312135 -.00000528  00000+0 -16560-4 0  9994
2 44968  53.0534 216.3350 0001028  76.4050 283.7053 15.06390904307180
STARLINK-1093           
1 44970U 20001BJ  25213.16093615  .00685308  25795-3  75056-3 0  9998
2 44970  53.0355 107.7722 0003654 227.0111 291.0646 16.09167951308672
STARLINK-1107           
1 44972U 20001BL  25213.14576699  .00058151  00000+0  10816-2 0  9996
2 44972  53.0151 163.7032 0000100 232.2756 127.8242 15.48343718307913
STARLINK-1115           
1 44973U 20001BM  25213.25002315  .00273779  00000+0  11304-2 0  9996
2 44973  53.0273 126.3139 0006380  54.0395 342.3328 15.84593452308447
STARLINK-1132           
1 45044U 20006A   25213.11623374 -.00000843  00000+0 -37723-4 0  9997
2 45044  53.0539 176.8104 0001297  86.2574 273.8564 15.06392910303830
STARLINK-1131           
1 45047U 20006D   25213.22503068 -.00000361  00000+0 -53642-5 0  9993
2 45047  53.0538 196.8611 0001386  86.0315 274.0832 15.06393760303562
STARLINK-1134           
1 45048U 20006E   25213.15659456  .00047205  00000+0  21636-2 0  9990
2 45048  53.0530 185.9085 0002874 242.6335 117.4367 15.20022348303711
STARLINK-1156           
1 45054U 20006L   25212.66470229  .00000088  00000+0  24797-4 0  9992
2 45054  53.0542 198.8396 0001187  75.7818 284.3303 15.06398546303484
STARLINK-1159           
1 45057U 20006P   25213.21022432 -.00000242  00000+0  26471-5 0  9991
2 45057  53.0540 196.3887 0001105  78.1368 281.9744 15.06387812303576
STARLINK-1166           
1 45060U 20006S   25213.22128120 -.00000648  00000+0 -24608-4 0  9997
2 45060  53.0538 196.3413 0001278  86.2939 273.8197 15.06389855303578
STARLINK-1169           
1 45061U 20006T   25212.96326040 -.00000844  00000+0 -37790-4 0  9993
2 45061  53.0542 197.5001 0001176  79.5829 280.5292 15.06389319303194
STARLINK-1171           
1 45062U 20006U   25213.21391124 -.00000580  00000+0 -20076-4 0  9994
2 45062  53.0533 196.3708 0001205  84.1641 275.9485 15.06388522303572
STARLINK-1133           
1 45064U 20006W   25213.16047395  .00000328  00000+0  40896-4 0  9998
2 45064  53.0539 176.6090 0001267  91.3141 268.7994 15.06403011303855
STARLINK-1150           
1 45067U 20006Z   25213.25002315  .00187941  00000+0  13626-2 0  9990
2 45067  53.0479 149.9250 0010064  48.5238 103.3622 15.72280154304226
STARLINK-1167           
1 45071U 20006AD  25213.18625901 -.00000482  00000+0 -13494-4 0  9990
2 45071  53.0538 176.4992 0001282  87.4472 272.6664 15.06396749303847
STARLINK-1168           
1 45072U 20006AE  25213.12360171 -.00001127  00000+0 -56757-4 0  9996
2 45072  53.0543 176.7791 0001322  85.1417 274.9723 15.06394648303840
