OBJECT_NAME,OBJECT_ID,EPOCH,MEAN_MOTION,ECCENTRICITY,INCLINATION,RA_OF_ASC_NODE,ARG_OF_PERICENTER,MEAN_ANOMALY,EPHEMERIS_TYPE,CLASSIFICATION_TYPE,NORAD_CAT_ID,ELEMENT_SET_NO,REV_AT_EPOCH,BSTAR,MEAN_MOTION_DOT,MEAN_MOTION_DDOT,sigma_x,sigma_y,sigma_z
STARLINK-1104,2020-001J,2025-07-31T22:00:01.999584,15.8436009,0.0010623,53.0516,226.6231,351.7537,134.1507,0,U,44922,999,604,0.0012253,0.00294927,0.0,0.5,0.5,0.5
STARLINK-1112,2020-001M,2025-07-31T17:33:30.615840,15.39085802,0.0009209,53.0534,242.0669,314.506,45.519,0,U,44925,999,30677,0.0019013,0.00075171,0.0,0.5,0.5,0.5
STARLINK-1114,2020-001P,2025-07-31T15:22:40.114848,15.06400922,9.89e-05,53.055,258.9472,73.9362,286.1736,0,U,44927,999,30653,0.00011814,1.479e-05,0.0,0.5,0.5,0.5
STARLINK-1123,2020-001S,2025-08-01T02:52:40.795968,15.06395272,0.0001122,53.0532,256.7952,79.4397,280.6719,0,U,44930,999,30660,3.2636e-05,2.05e-06,0.0,0.5,0.5,0.5
STARLINK-1144,2020-001V,2025-08-01T04:48:36.939456,15.4100828,0.0003663,53.0506,219.247,83.2987,276.8434,0,U,44933,999,30843,0.00063825,0.00026419,0.0,0.5,0.5,0.5
STARLINK-1071,2020-001W,2025-07-31T22:00:01.999584,15.8341131,0.0011732,53.0446,202.6721,0.9189,212.5063,0,U,44934,999,600,0.00095825,0.0021861,0.0,0.5,0.5,0.5
STARLINK-1079,2020-001Z,2025-08-01T06:44:53.252160,16.09121261,0.0001889,53.0234,116.4257,298.7217,159.4759,0,U,44937,999,30858,0.00076817,0.00698694,0.0002684,0.5,0.5,0.5
STARLINK-1091,2020-001AC,2025-08-01T06:00:02.000160,15.59511454,0.0009453,53.0471,212.6339,356.0507,128.4217,0,U,44940,999,30722,0.001622,0.00132963,0.0,0.5,0.5,0.5
STARLINK-1094,2020-001AD,2025-08-01T01:35:42.978624,15.06391954,9.92e-05,53.054,237.0348,82.1389,277.9712,0,U,44941,999,30687,2.9356e-05,1.56e-06,0.0,0.5,0.5,0.5
STARLINK-1096,2020-001AE,2025-07-31T19:48:17.989344,15.68012821,0.0001908,52.9976,43.4115,112.7702,247.3515,0,U,44942,999,30955,0.00053926,0.00060807,0.0,0.5,0.5,0.5
STARLINK-1122,2020-001AM,2025-08-01T05:18:38.644704,15.06386896,9.74e-05,53.0539,236.3385,78.519,281.5908,0,U,44949,999,30689,-5.6403e-05,-1.121e-05,0.0,0.5,0.5,0.5
STARLINK-1066,2020-001AS,2025-08-01T06:00:02.000160,15.76024916,0.0013287,53.0481,184.7955,15.3182,131.2737,0,U,44954,999,30756,0.0009896,0.00160185,0.0,0.5,0.5,0.5
STARLINK-1080,2020-001AZ,2025-08-01T05:15:59.126112,15.06391199,0.0001192,53.0533,216.3518,83.636,276.4764,0,U,44961,999,30718,-1.4056e-05,-4.91e-06,0.0,0.5,0.5,0.5
STARLINK-1090,2020-001BG,2025-08-01T05:21:17.684640,15.06390904,0.0001028,53.0534,216.335,76.405,283.7053,0,U,44968,999,30718,-1.656e-05,-5.28e-06,0.0,0.5,0.5,0.5
STARLINK-1093,2020-001BJ,2025-08-01T03:51:44.883360,16.09167951,0.0003654,53.0355,107.7722,227.0111,291.0646,0,U,44970,999,30867,0.00075056,0.00685308,0.00025795,0.5,0.5,0.5
STARLINK-1107,2020-001BL,2025-08-01T03:29:54.267936,15.48343718,1e-05,53.0151,163.7032,232.2756,127.8242,0,U,44972,999,30791,0.0010816,0.00058151,0.0,0.5,0.5,0.5
STARLINK-1115,2020-001BM,2025-08-01T06:00:02.000160,15.84593452,0.000638,53.0273,126.3139,54.0395,342.3328,0,U,44973,999,30844,0.0011304,0.00273779,0.0,0.5,0.5,0.5
STARLINK-1132,2020-006A,2025-08-01T02:47:22.595136,15.0639291,0.0001297,53.0539,176.8104,86.2574,273.8564,0,U,45044,999,30383,-3.7723e-05,-8.43e-06,0.0,0.5,0.5,0.5
STARLINK-1131,2020-006D,2025-08-01T05:24:02.650752,15.0639376,0.0001386,53.0538,196.8611,86.0315,274.0832,0,U,45047,999,30356,-5.3642e-06,-3.61e-06,0.0,0.5,0.5,0.5
STARLINK-1134,2020-006E,2025-08-01T03:45:29.769984,15.20022348,0.0002874,53.053,185.9085,242.6335,117.4367,0,U,45048,999,30371,0.0021636,0.00047205,0.0,0.5,0.5,0.5
STARLINK-1156,2020-006L,2025-07-31T15:57:10.277856,15.06398546,0.0001187,53.0542,198.8396,75.7818,284.3303,0,U,45054,999,30348,2.4797e-05,8.8e-07,0.0,0.5,0.5,0.5
STARLINK-1159,2020-006P,2025-08-01T05:02:43.381248,15.06387812,0.0001105,53.054,196.3887,78.1368,281.9744,0,U,45057,999,30357,2.6471e-06,-2.42e-06,0.0,0.5,0.5,0.5
STARLINK-1166,2020-006S,2025-08-01T05:18:38.695680,15.06389855,0.0001278,53.0538,196.3413,86.2939,273.8197,0,U,45060,999,30357,-2.4608e-05,-6.48e-06,0.0,0.5,0.5,0.5
STARLINK-1169,2020-006T,2025-07-31T23:07:05.698560,15.06389319,0.0001176,53.0542,197.5001,79.5829,280.5292,0,U,45061,999,30319,-3.779e-05,-8.44e-06,0.0,0.5,0.5,0.5
STARLINK-1171,2020-006U,2025-08-01T05:08:01.931136,15.06388522,0.0001205,53.0533,196.3708,84.1641,275.9485,0,U,45062,999,30357,-2.0076e-05,-5.8e-06,0.0,0.5,0.5,0.5
STARLINK-1133,2020-006W,2025-08-01T03:51:04.949280,15.06403011,0.0001267,53.0539,176.609,91.3141,268.7994,0,U,45064,999,30385,4.0896e-05,3.28e-06,0.0,0.5,0.5,0.5
STARLINK-1150,2020-006Z,2025-08-01T06:00:02.000160,15.72280154,0.0010064,53.0479,149.925,48.5238,103.3622,0,U,45067,999,30422,0.0013626,0.00187941,0.0,0.5,0.5,0.5
STARLINK-1167,2020-006AD,2025-08-01T04:28:12.778464,15.06396749,0.0001282,53.0538,176.4992,87.4472,272.6664,0,U,45071,999,30384,-1.3494e-05,-4.82e-06,0.0,0.5,0.5,0.5
STARLINK-1168,2020-006AE,2025-08-01T02:57:59.187744,15.06394648,0.0001322,53.0543,176.7791,85.1417,274.9723,0,U,45072,999,30384,-5.6757e-05,-1.127e-05,0.0,0.5,0.5,0.5
